[Satellite]
VERSION=1.1
NAME=GSAT0217 (PRN E27)
NICKNAME=GSAT0217 (PRN E27)
TLE1=1 43057U 17079C   19316.42748110 -.00000020  00000-0  00000+0 0  9992
TLE2=2 43057  56.4433 287.7763 0005151 277.6423  82.2716  1.70473765 11928
STATUS=0
